[Satellite]
VERSION=1.1
NAME=SES-4
NICKNAME=SES-4
TLE1=1 38087U 12007A   15054.11983472 -.00000194  00000-0  00000+0 0  9990
TLE2=2 38087   0.0251 349.3545 0002531 330.1360 214.2904  1.00270365 11105
